start=new Date('2023-06-06T00:00:00.000Z').valueOf();
sats=[{"ELEMENT_SET_NO":"999","RA_OF_ASC_NODE":"316.5718","GP_ID":"233283487","TLE_LINE2":"2 48594  53.0546 316.5718 0001061  88.6034 271.5076 15.06433295113565","DECAY_DATE":null,"TIME_SYSTEM":"UTC","ARG_OF_PERICENTER":"88.6034","MEAN_MOTION":"15.06433295","EPOCH":"2023-06-05T17:43:11.824320","INCLINATION":"53.0546","CENTER_NAME":"EARTH","MEAN_MOTION_DOT":"0.00018737","CLASSIFICATION_TYPE":"U","LAUNCH_DATE":"2021-05-15","RCS_SIZE":"LARGE","APOAPSIS":"547.846","PERIOD":"95.590","COUNTRY_CODE":"US","ECCENTRICITY":"0.00010610","TLE_LINE1":"1 48594U 21041AT  23156.73833130  .00018737  00000-0  12723-2 0  9996","BSTAR":"0.00127230000000","REV_AT_EPOCH":"11356","PERIAPSIS":"546.377","FILE":"3925751","OBJECT_TYPE":"PAYLOAD","EPHEMERIS_TYPE":"0","REF_FRAME":"TEME","MEAN_ELEMENT_THEORY":"SGP4","OBJECT_ID":"2021-041AT","NORAD_CAT_ID":"48594","SITE":"AFETR","OBJECT_NAME":"STARLINK-2251","MEAN_MOTION_DDOT":"0.0000000000000","SEMIMAJOR_AXIS":"6925.247","MEAN_ANOMALY":"271.5076"},{"DECAY_DATE":null,"TIME_SYSTEM":"UTC","MEAN_MOTION":"15.06434879","EPOCH":"2023-06-05T18:11:03.120000","ARG_OF_PERICENTER":"80.9886","TLE_LINE2":"2 48595  53.0548 346.3980 0001078  80.9886 279.1225 15.06434879114412","RA_OF_ASC_NODE":"346.3980","GP_ID":"233283737","ELEMENT_SET_NO":"999","LAUNCH_DATE":"2021-05-15","CLASSIFICATION_TYPE":"U","RCS_SIZE":"LARGE","CENTER_NAME":"EARTH","INCLINATION":"53.0548","MEAN_MOTION_DOT":"0.00017097","ECCENTRICITY":"0.00010780","TLE_LINE1":"1 48595U 21041AU  23156.75767500  .00017097  00000-0  11628-2 0  9997","COUNTRY_CODE":"US","PERIOD":"95.590","APOAPSIS":"547.853","OBJECT_NAME":"STARLINK-2252","SITE":"AFETR","MEAN_ANOMALY":"279.1225","MEAN_MOTION_DDOT":"0.0000000000000","SEMIMAJOR_AXIS":"6925.242","OBJECT_ID":"2021-041AU","NORAD_CAT_ID":"48595","EPHEMERIS_TYPE":"0","OBJECT_TYPE":"PAYLOAD","FILE":"3925751","MEAN_ELEMENT_THEORY":"SGP4","REF_FRAME":"TEME","BSTAR":"0.00116280000000","REV_AT_EPOCH":"11441","PERIAPSIS":"546.360"},{"TLE_LINE1":"1 48596U 21041AV  23156.91248065  .00016296  00000-0  11092-2 0  9991","ECCENTRICITY":"0.00009320","COUNTRY_CODE":"US","PERIOD":"95.590","APOAPSIS":"547.738","OBJECT_NAME":"STARLINK-2253","SITE":"AFETR","MEAN_ANOMALY":"290.3583","SEMIMAJOR_AXIS":"6925.227","MEAN_MOTION_DDOT":"0.0000000000000","OBJECT_ID":"2021-041AV","NORAD_CAT_ID":"48596","EPHEMERIS_TYPE":"0","FILE":"3925751","OBJECT_TYPE":"PAYLOAD","MEAN_ELEMENT_THEORY":"SGP4","REF_FRAME":"TEME","BSTAR":"0.00110920000000","PERIAPSIS":"546.447","REV_AT_EPOCH":"11362","DECAY_DATE":null,"TIME_SYSTEM":"UTC","EPOCH":"2023-06-05T21:53:58.328160","MEAN_MOTION":"15.06439570","ARG_OF_PERICENTER":"69.7506","TLE_LINE2":"2 48596  53.0540 345.7057 0000932  69.7506 290.3583 15.06439570113622","RA_OF_ASC_NODE":"345.7057","GP_ID":"233283989","ELEMENT_SET_NO":"999","LAUNCH_DATE":"2021-05-15","CLASSIFICATION_TYPE":"U","RCS_SIZE":"LARGE","CENTER_NAME":"EARTH","INCLINATION":"53.0540","MEAN_MOTION_DOT":"0.00016296"},{"MEAN_ELEMENT_THEORY":"SGP4","REF_FRAME":"TEME","EPHEMERIS_TYPE":"0","OBJECT_TYPE":"PAYLOAD","FILE":"3925751","PERIAPSIS":"546.539","REV_AT_EPOCH":"11441","BSTAR":"0.00083447000000","MEAN_ANOMALY":"289.2984","SEMIMAJOR_AXIS":"6925.262","MEAN_MOTION_DDOT":"0.0000000000000","OBJECT_NAME":"STARLINK-2255","SITE":"AFETR","NORAD_CAT_ID":"48597","OBJECT_ID":"2021-041AW","COUNTRY_CODE":"US","PERIOD":"95.590","APOAPSIS":"547.714","ECCENTRICITY":"0.00008480","TLE_LINE1":"1 48597U 21041AW  23156.78716090  .00012179  00000-0  83447-3 0  9995","RCS_SIZE":"LARGE","LAUNCH_DATE":"2021-05-15","CLASSIFICATION_TYPE":"U","MEAN_MOTION_DOT":"0.00012179","INCLINATION":"53.0535","CENTER_NAME":"EARTH","GP_ID":"233284739","RA_OF_ASC_NODE":"346.2708","ELEMENT_SET_NO":"999","EPOCH":"2023-06-05T18:53:30.701760","MEAN_MOTION":"15.06428362","ARG_OF_PERICENTER":"70.8097","TIME_SYSTEM":"UTC","DECAY_DATE":null,"TLE_LINE2":"2 48597  53.0535 346.2708 0000848  70.8097 289.2984 15.06428362114417"},{"NORAD_CAT_ID":"48598","OBJECT_ID":"2021-041AX","MEAN_MOTION_DDOT":"0.0000000000000","SEMIMAJOR_AXIS":"6925.264","MEAN_ANOMALY":"258.2546","SITE":"AFETR","OBJECT_NAME":"STARLINK-2256","REV_AT_EPOCH":"11360","PERIAPSIS":"546.536","BSTAR":"0.00091408000000","REF_FRAME":"TEME","MEAN_ELEMENT_THEORY":"SGP4","OBJECT_TYPE":"PAYLOAD","FILE":"3925751","EPHEMERIS_TYPE":"0","ECCENTRICITY":"0.00008560","TLE_LINE1":"1 48598U 21041AX  23156.79084748  .00013370  00000-0  91408-3 0  9995","APOAPSIS":"547.722","PERIOD":"95.590","COUNTRY_CODE":"US","MEAN_MOTION_DOT":"0.00013370","CENTER_NAME":"EARTH","INCLINATION":"53.0539","RCS_SIZE":"LARGE","CLASSIFICATION_TYPE":"U","LAUNCH_DATE":"2021-05-15","TLE_LINE2":"2 48598  53.0539 346.2510 0000856 101.8539 258.2546 15.06427512113604","ARG_OF_PERICENTER":"101.8539","MEAN_MOTION":"15.06427512","EPOCH":"2023-06-05T18:58:49.222272","TIME_SYSTEM":"UTC","DECAY_DATE":null,"ELEMENT_SET_NO":"999","GP_ID":"233282988","RA_OF_ASC_NODE":"346.2510"},{"COUNTRY_CODE":"US","PERIOD":"95.590","APOAPSIS":"547.785","TLE_LINE1":"1 48599U 21041AY  23156.75076060  .00018250  00000-0  12398-2 0  9992","ECCENTRICITY":"0.00009760","MEAN_ELEMENT_THEORY":"SGP4","REF_FRAME":"TEME","EPHEMERIS_TYPE":"0","OBJECT_TYPE":"PAYLOAD","FILE":"3925751","REV_AT_EPOCH":"11476","PERIAPSIS":"546.433","BSTAR":"0.00123980000000","MEAN_ANOMALY":"273.3128","SEMIMAJOR_AXIS":"6925.244","MEAN_MOTION_DDOT":"0.0000000000000","OBJECT_NAME":"STARLINK-2274","SITE":"AFETR","NORAD_CAT_ID":"48599","OBJECT_ID":"2021-041AY","GP_ID":"233283238","RA_OF_ASC_NODE":"321.4295","ELEMENT_SET_NO":"999","MEAN_MOTION":"15.06434154","EPOCH":"2023-06-05T18:01:05.715840","ARG_OF_PERICENTER":"86.7973","DECAY_DATE":null,"TIME_SYSTEM":"UTC","TLE_LINE2":"2 48599  53.0547 321.4295 0000976  86.7973 273.3128 15.06434154114767","RCS_SIZE":"LARGE","LAUNCH_DATE":"2021-05-15","CLASSIFICATION_TYPE":"U","MEAN_MOTION_DOT":"0.00018250","INCLINATION":"53.0547","CENTER_NAME":"EARTH"},{"OBJECT_ID":"2021-041AZ","NORAD_CAT_ID":"48600","OBJECT_NAME":"STARLINK-2275","SITE":"AFETR","MEAN_ANOMALY":"288.7631","SEMIMAJOR_AXIS":"6925.226","MEAN_MOTION_DDOT":"0.0000000000000","BSTAR":"0.00134990000000","REV_AT_EPOCH":"11455","PERIAPSIS":"546.330","EPHEMERIS_TYPE":"0","FILE":"3925751","OBJECT_TYPE":"PAYLOAD","MEAN_ELEMENT_THEORY":"SGP4","REF_FRAME":"TEME","ECCENTRICITY":"0.00010990","TLE_LINE1":"1 48600U 21041AZ  23156.78808323  .00019904  00000-0  13499-2 0  9993","APOAPSIS":"547.852","COUNTRY_CODE":"US","PERIOD":"95.590","INCLINATION":"53.0543","CENTER_NAME":"EARTH","MEAN_MOTION_DOT":"0.00019904","LAUNCH_DATE":"2021-05-15","CLASSIFICATION_TYPE":"U","RCS_SIZE":"LARGE","TLE_LINE2":"2 48600  53.0543 336.2620 0001099  71.3478 288.7631 15.06439921114552","TIME_SYSTEM":"UTC","DECAY_DATE":null,"EPOCH":"2023-06-05T18:54:50.391072","MEAN_MOTION":"15.06439921","ARG_OF_PERICENTER":"71.3478","ELEMENT_SET_NO":"999","RA_OF_ASC_NODE":"336.2620","GP_ID":"233284489"},{"ELEMENT_SET_NO":"999","RA_OF_ASC_NODE":"321.5784","GP_ID":"233284240","TLE_LINE2":"2 48602  53.0537 321.5784 0000653  83.9194 276.1869 15.06423220114744","TIME_SYSTEM":"UTC","DECAY_DATE":null,"MEAN_MOTION":"15.06423220","EPOCH":"2023-06-05T17:13:19.648992","ARG_OF_PERICENTER":"83.9194","CENTER_NAME":"EARTH","INCLINATION":"53.0537","MEAN_MOTION_DOT":"0.00016815","LAUNCH_DATE":"2021-05-15","CLASSIFICATION_TYPE":"U","RCS_SIZE":"LARGE","APOAPSIS":"547.595","COUNTRY_CODE":"US","PERIOD":"95.591","TLE_LINE1":"1 48602U 21041BB  23156.71758853  .00016815  00000-0  11443-2 0  9995","ECCENTRICITY":"0.00006530","BSTAR":"0.00114430000000","PERIAPSIS":"546.690","REV_AT_EPOCH":"11474","EPHEMERIS_TYPE":"0","OBJECT_TYPE":"PAYLOAD","FILE":"3925751","MEAN_ELEMENT_THEORY":"SGP4","REF_FRAME":"TEME","OBJECT_ID":"2021-041BB","NORAD_CAT_ID":"48602","OBJECT_NAME":"STARLINK-2713","SITE":"AFETR","MEAN_ANOMALY":"276.1869","MEAN_MOTION_DDOT":"0.0000000000000","SEMIMAJOR_AXIS":"6925.277"},{"CLASSIFICATION_TYPE":"U","LAUNCH_DATE":"2021-05-15","RCS_SIZE":"LARGE","CENTER_NAME":"EARTH","INCLINATION":"53.0535","MEAN_MOTION_DOT":"0.00015403","DECAY_DATE":null,"TIME_SYSTEM":"UTC","ARG_OF_PERICENTER":"37.0378","MEAN_MOTION":"15.06430267","EPOCH":"2023-06-05T18:18:58.375296","TLE_LINE2":"2 48603  53.0535 316.3780 0000675  37.0378 323.0657 15.06430267114835","RA_OF_ASC_NODE":"316.3780","GP_ID":"233283488","ELEMENT_SET_NO":"999","SITE":"AFETR","OBJECT_NAME":"STARLINK-2714","MEAN_MOTION_DDOT":"0.0000000000000","SEMIMAJOR_AXIS":"6925.256","MEAN_ANOMALY":"323.0657","OBJECT_ID":"2021-041BC","NORAD_CAT_ID":"48603","FILE":"3925751","OBJECT_TYPE":"PAYLOAD","EPHEMERIS_TYPE":"0","REF_FRAME":"TEME","MEAN_ELEMENT_THEORY":"SGP4","BSTAR":"0.00104980000000","PERIAPSIS":"546.653","REV_AT_EPOCH":"11483","ECCENTRICITY":"0.00006750","TLE_LINE1":"1 48603U 21041BC  23156.76317564  .00015403  00000-0  10498-2 0  9992","PERIOD":"95.590","COUNTRY_CODE":"US","APOAPSIS":"547.588"},{"RCS_SIZE":"LARGE","CLASSIFICATION_TYPE":"U","LAUNCH_DATE":"2021-05-15","MEAN_MOTION_DOT":"0.00016441","INCLINATION":"53.0551","CENTER_NAME":"EARTH","ARG_OF_PERICENTER":"92.2617","EPOCH":"2023-06-05T21:32:44.704896","MEAN_MOTION":"15.06427575","DECAY_DATE":null,"TIME_SYSTEM":"UTC","TLE_LINE2":"2 48604  53.0551 345.7707 0001024  92.2617 267.8489 15.06427575114439","GP_ID":"233283738","RA_OF_ASC_NODE":"345.7707","ELEMENT_SET_NO":"999","MEAN_MOTION_DDOT":"0.0000000000000","SEMIMAJOR_AXIS":"6925.264","MEAN_ANOMALY":"267.8489","SITE":"AFETR","OBJECT_NAME":"STARLINK-2757","NORAD_CAT_ID":"48604","OBJECT_ID":"2021-041BD","REF_FRAME":"TEME","MEAN_ELEMENT_THEORY":"SGP4","FILE":"3925751","OBJECT_TYPE":"PAYLOAD","EPHEMERIS_TYPE":"0","REV_AT_EPOCH":"11443","PERIAPSIS":"546.420","BSTAR":"0.00111920000000","TLE_LINE1":"1 48604U 21041BD  23156.89773964  .00016441  00000-0  11192-2 0  9992","ECCENTRICITY":"0.00010240","PERIOD":"95.590","COUNTRY_CODE":"US","APOAPSIS":"547.838"}];
